{
  "type": "FeatureCollection",
  "features": [
    {
      "type": "Feature",
      "properties": {
        "norad_id": 55973,
        "name": "TIANMU-1 03",
        "group": "weather",
        "lat": 77.81608242671234,
        "lon": 110.82147607248596,
        "alt_km": 433.3369648769167,
        "timestamp": "2025-12-11T20:41:14.731114+00:00",
        "meta_object_name": "TIANMU-1 03",
        "meta_object_id": "2023-039A",
        "meta_epoch": "2025-12-11T14:06:21.122208",
        "meta_mean_motion": 15.40869434,
        "meta_eccentricity": 0.00044323,
        "meta_inclination": 97.5109,
        "meta_ra_of_asc_node": 148.207,
        "meta_arg_of_pericenter": 64.628,
        "meta_mean_anomaly": 295.5425,
        "meta_ephemeris_type": 0,
        "meta_classification_type": "U",
        "meta_norad_cat_id": 55973,
        "meta_element_set_no": 999,
        "meta_rev_at_epoch": 15188,
        "meta_bstar": 0.00048730337,
        "meta_mean_motion_dot": 0.00019953,
        "meta_mean_motion_ddot": 0,
        "tle_line1": "1 55973U 23039A   25345.58774447  .00019953  00000+0  48730-3 0  9992",
        "tle_line2": "2 55973  97.5109 148.2070 0004432  64.6280 295.5425 15.40869434151882"
      },
      "geometry": {
        "type": "Point",
        "coordinates": [
          110.82147607248596,
          77.81608242671234
        ]
      }
    },
    {
      "type": "Feature",
      "properties": {
        "norad_id": 55974,
        "name": "TIANMU-1 04",
        "group": "weather",
        "lat": -13.33758698619337,
        "lon": -34.11064745105515,
        "alt_km": 449.6329981418812,
        "timestamp": "2025-12-11T20:41:14.731124+00:00",
        "meta_object_name": "TIANMU-1 04",
        "meta_object_id": "2023-039B",
        "meta_epoch": "2025-12-11T15:10:36.699744",
        "meta_mean_motion": 15.4120655,
        "meta_eccentricity": 0.00050999,
        "meta_inclination": 97.5041,
        "meta_ra_of_asc_node": 147.4444,
        "meta_arg_of_pericenter": 59.5511,
        "meta_mean_anomaly": 300.6238,
        "meta_ephemeris_type": 0,
        "meta_classification_type": "U",
        "meta_norad_cat_id": 55974,
        "meta_element_set_no": 999,
        "meta_rev_at_epoch": 15189,
        "meta_bstar": 0.00049283855,
        "meta_mean_motion_dot": 0.0002041,
        "meta_mean_motion_ddot": 0,
        "tle_line1": "1 55974U 23039B   25345.63236921  .00020410  00000+0  49284-3 0  9994",
        "tle_line2": "2 55974  97.5041 147.4444 0005099  59.5511 300.6238 15.41206550151890"
      },
      "geometry": {
        "type": "Point",
        "coordinates": [
          -34.11064745105515,
          -13.33758698619337
        ]
      }
    },
    {
      "type": "Feature",
      "properties": {
        "norad_id": 55975,
        "name": "TIANMU-1 05",
        "group": "weather",
        "lat": -45.98803809400945,
        "lon": -39.674555332311826,
        "alt_km": 452.9311357458746,
        "timestamp": "2025-12-11T20:41:14.731135+00:00",
        "meta_object_name": "TIANMU-1 05",
        "meta_object_id": "2023-039C",
        "meta_epoch": "2025-12-11T15:01:56.004096",
        "meta_mean_motion": 15.40828006,
        "meta_eccentricity": 0.0004358,
        "meta_inclination": 97.5088,
        "meta_ra_of_asc_node": 147.9306,
        "meta_arg_of_pericenter": 81.3007,
        "meta_mean_anomaly": 278.8732,
        "meta_ephemeris_type": 0,
        "meta_classification_type": "U",
        "meta_norad_cat_id": 55975,
        "meta_element_set_no": 999,
        "meta_rev_at_epoch": 15187,
        "meta_bstar": 0.0004939346,
        "meta_mean_motion_dot": 0.00020198,
        "meta_mean_motion_ddot": 0,
        "tle_line1": "1 55975U 23039C   25345.62634264  .00020198  00000+0  49393-3 0  9990",
        "tle_line2": "2 55975  97.5088 147.9306 0004358  81.3007 278.8732 15.40828006151872"
      },
      "geometry": {
        "type": "Point",
        "coordinates": [
          -39.674555332311826,
          -45.98803809400945
        ]
      }
    },
    {
      "type": "Feature",
      "properties": {
        "norad_id": 55976,
        "name": "TIANMU-1 06",
        "group": "weather",
        "lat": -1.233296496984448,
        "lon": -31.525748746994765,
        "alt_km": 446.4937768572372,
        "timestamp": "2025-12-11T20:41:14.731145+00:00",
        "meta_object_name": "TIANMU-1 06",
        "meta_object_id": "2023-039D",
        "meta_epoch": "2025-12-11T15:13:47.834688",
        "meta_mean_motion": 15.41258605,
        "meta_eccentricity": 0.00046723,
        "meta_inclination": 97.5098,
        "meta_ra_of_asc_node": 148.4032,
        "meta_arg_of_pericenter": 76.4243,
        "meta_mean_anomaly": 283.7524,
        "meta_ephemeris_type": 0,
        "meta_classification_type": "U",
        "meta_norad_cat_id": 55976,
        "meta_element_set_no": 999,
        "meta_rev_at_epoch": 15189,
        "meta_bstar": 0.00048596609,
        "meta_mean_motion_dot": 0.00020157,
        "meta_mean_motion_ddot": 0,
        "tle_line1": "1 55976U 23039D   25345.63458142  .00020157  00000+0  48597-3 0  9991",
        "tle_line2": "2 55976  97.5098 148.4032 0004672  76.4243 283.7524 15.41258605151891"
      },
      "geometry": {
        "type": "Point",
        "coordinates": [
          -31.525748746994765,
          -1.233296496984448
        ]
      }
    },
    {
      "type": "Feature",
      "properties": {
        "norad_id": 56232,
        "name": "FENGYUN 3G",
        "group": "weather",
        "lat": -25.685351592002885,
        "lon": 75.80817328235628,
        "alt_km": 407.38603412957855,
        "timestamp": "2025-12-11T20:41:14.731155+00:00",
        "meta_object_name": "FENGYUN 3G",
        "meta_object_id": "2023-055A",
        "meta_epoch": "2025-12-11T04:19:56.451936",
        "meta_mean_motion": 15.53495979,
        "meta_eccentricity": 0.00092917,
        "meta_inclination": 49.9932,
        "meta_ra_of_asc_node": 235.5005,
        "meta_arg_of_pericenter": 141.2509,
        "meta_mean_anomaly": 218.9126,
        "meta_ephemeris_type": 0,
        "meta_classification_type": "U",
        "meta_norad_cat_id": 56232,
        "meta_element_set_no": 999,
        "meta_rev_at_epoch": 15078,
        "meta_bstar": 0.00075652798,
        "meta_mean_motion_dot": 0.0004892,
        "meta_mean_motion_ddot": 0,
        "tle_line1": "1 56232U 23055A   25345.18051449  .00048920  00000+0  75653-3 0  9995",
        "tle_line2": "2 56232  49.9932 235.5005 0009291 141.2509 218.9126 15.53495979150786"
      },
      "geometry": {
        "type": "Point",
        "coordinates": [
          75.80817328235628,
          -25.685351592002885
        ]
      }
    },
    {
      "type": "Feature",
      "properties": {
        "norad_id": 57166,
        "name": "METEOR-M2 3",
        "group": "weather",
        "lat": 68.25303898791198,
        "lon": 17.016368829065236,
        "alt_km": 803.6198519357749,
        "timestamp": "2025-12-11T20:41:14.731165+00:00",
        "meta_object_name": "METEOR-M2 3",
        "meta_object_id": "2023-091A",
        "meta_epoch": "2025-12-11T15:18:04.802112",
        "meta_mean_motion": 14.2402593,
        "meta_eccentricity": 0.00039689,
        "meta_inclination": 98.6379,
        "meta_ra_of_asc_node": 39.1961,
        "meta_arg_of_pericenter": 11.9921,
        "meta_mean_anomaly": 348.1352,
        "meta_ephemeris_type": 0,
        "meta_classification_type": "U",
        "meta_norad_cat_id": 57166,
        "meta_element_set_no": 999,
        "meta_rev_at_epoch": 12782,
        "meta_bstar": 3.3105404e-05,
        "meta_mean_motion_dot": 3.3e-07,
        "meta_mean_motion_ddot": 0,
        "tle_line1": "1 57166U 23091A   25345.63755558  .00000033  00000+0  33105-4 0  9994",
        "tle_line2": "2 57166  98.6379  39.1961 0003968  11.9921 348.1352 14.24025930127823"
      },
      "geometry": {
        "type": "Point",
        "coordinates": [
          17.016368829065236,
          68.25303898791198
        ]
      }
    },
    {
      "type": "Feature",
      "properties": {
        "norad_id": 57399,
        "name": "TIANMU-1 07",
        "group": "weather",
        "lat": -69.93552843773392,
        "lon": 56.24194437998555,
        "alt_km": 492.41766338545676,
        "timestamp": "2025-12-11T20:41:14.731175+00:00",
        "meta_object_name": "TIANMU-1 07",
        "meta_object_id": "2023-101A",
        "meta_epoch": "2025-12-11T14:42:44.858880",
        "meta_mean_motion": 15.28050126,
        "meta_eccentricity": 0.00056155,
        "meta_inclination": 97.2879,
        "meta_ra_of_asc_node": 35.4873,
        "meta_arg_of_pericenter": 84.6356,
        "meta_mean_anomaly": 275.5524,
        "meta_ephemeris_type": 0,
        "meta_classification_type": "U",
        "meta_norad_cat_id": 57399,
        "meta_element_set_no": 999,
        "meta_rev_at_epoch": 13298,
        "meta_bstar": 0.00053189652,
        "meta_mean_motion_dot": 0.00014498,
        "meta_mean_motion_ddot": 0,
        "tle_line1": "1 57399U 23101A   25345.61301920  .00014498  00000+0  53190-3 0  9997",
        "tle_line2": "2 57399  97.2879  35.4873 0005615  84.6356 275.5524 15.28050126132989"
      },
      "geometry": {
        "type": "Point",
        "coordinates": [
          56.24194437998555,
          -69.93552843773392
        ]
      }
    }
  ]
}